[
    {
        "Altitude(m)": 611967.2076018653,
        "Argument of Periapsis(deg)": 0.0,
        "Eccentricity": 0.0,
        "Inclination(deg)": 60.0,
        "Latitude(deg)": 59.140248481565614,
        "Longitude(deg)": 126.09215538141783,
        "Mean Anomaly(deg)": 98.18179999999998,
        "RAAN(deg)": 120.0,
        "Satellite Name": "Test1 534",
        "Satellite Number": 534,
        "Semi-Major Axis(m)": 6980739.136638005,
        "Time(s)": 0
    },
    {
        "Altitude(m)": 611934.4071614615,
        "Argument of Periapsis(deg)": 0.00010418945913296404,
        "Eccentricity": 0.0,
        "Inclination(deg)": 60.0,
        "Latitude(deg)": 58.98660950384556,
        "Longitude(deg)": 127.21540332677573,
        "Mean Anomaly(deg)": 98.80190614546183,
        "RAAN(deg)": 119.99957995086024,
        "Satellite Name": "Test1 534",
        "Satellite Number": 534,
        "Semi-Major Axis(m)": 6980739.136638005,
        "Time(s)": 10
    }
]